ONEWEB-0603             
1 54667U 22166AB  23301.44867167 -.00000001  00000+0 -33502-4 0  9996
2 54667  87.9222  75.6319 0002221 101.0237 259.1146 13.21829683 44753
ONEWEB-0604             
1 54668U 22166AC  23301.43605749  .00000001  00000+0 -29653-4 0  9993
2 54668  87.9215  75.6310 0002265  94.2046 265.9346 13.21827361 44721
ONEWEB-0605             
1 54669U 22166AD  23301.42974587  .00004959  00000+0  11971-1 0  9998
2 54669  87.9215  75.6569 0002515 119.1119 241.0267 13.21814872 44791
ONEWEB-0606             
1 54670U 22166AE  23300.92194808  .00000079  00000+0  16017-3 0  9991
2 54670  87.9221  75.7453 0001392  93.2720 266.8573 13.21829034 44774
ONEWEB-0607             
1 54671U 22166AF  23301.34300006  .00000084  00000+0  17170-3 0  9995
2 54671  87.9212  75.6497 0001986  98.9831 261.1527 13.21823095 44808
ONEWEB-0608             
1 54672U 22166AG  23301.34930588  .00000065  00000+0  12590-3 0  9990
2 54672  87.9223  75.6535 0002334 107.8962 252.2427 13.21822237 44815
ONEWEB-0610             
1 54673U 22166AH  23301.40607666  .00000117  00000+0  25107-3 0  9992
2 54673  87.9223  75.6421 0002204 106.6293 253.5083 13.21821871 44736
ONEWEB-0611             
1 54674U 22166AJ  23301.39976861  .00000152  00000+0  33599-3 0  9990
2 54674  87.9224  75.6454 0001384  80.4652 279.6638 13.21824501 44727
